start=new Date('2021-09-08T00:00:00.000Z').valueOf();
sats=[{"SEMIMAJOR_AXIS":"6925.377","BSTAR":"0.00009594000000","ECCENTRICITY":"0.00011960","NORAD_CAT_ID":"45710","PERIAPSIS":"546.413","CENTER_NAME":"EARTH","APOAPSIS":"548.070","CLASSIFICATION_TYPE":"U","MEAN_MOTION_DOT":"0.00001148","GP_ID":"184281066","TIME_SYSTEM":"UTC","LAUNCH_DATE":"2020-06-04","REF_FRAME":"TEME","INCLINATION":"53.0546","MEAN_ANOMALY":"299.2028","ARG_OF_PERICENTER":"60.9081","MEAN_MOTION":"15.06390797","TLE_LINE2":"2 45710  53.0546 216.8295 0001196  60.9081 299.2028 15.06390797 71362","RA_OF_ASC_NODE":"216.8295","OBJECT_NAME":"STARLINK-1423","TLE_LINE1":"1 45710U 20035BF  21250.69034531  .00001148  00000-0  95940-4 0  9993","MEAN_MOTION_DDOT":"0.0000000000000","PERIOD":"95.593","COUNTRY_CODE":"US","REV_AT_EPOCH":"7136","MEAN_ELEMENT_THEORY":"SGP4","RCS_SIZE":"LARGE","EPOCH":"2021-09-07T16:34:05.834784","SITE":"AFETR","OBJECT_TYPE":"PAYLOAD","DECAY_DATE":null,"OBJECT_ID":"2020-035BF","FILE":"3110443","EPHEMERIS_TYPE":"0","ELEMENT_SET_NO":"999"},{"PERIOD":"95.592","MEAN_MOTION_DDOT":"0.0000000000000","MEAN_ELEMENT_THEORY":"SGP4","COUNTRY_CODE":"US","REV_AT_EPOCH":"7134","RCS_SIZE":"LARGE","DECAY_DATE":null,"OBJECT_ID":"2020-035BG","SITE":"AFETR","OBJECT_TYPE":"PAYLOAD","EPOCH":"2021-09-07T14:31:59.541600","EPHEMERIS_TYPE":"0","FILE":"3110443","ELEMENT_SET_NO":"999","MEAN_MOTION":"15.06404479","TLE_LINE2":"2 45711  53.0554 217.2081 0001492  53.2818 306.8308 15.06404479 71349","RA_OF_ASC_NODE":"217.2081","OBJECT_NAME":"STARLINK-1433","TLE_LINE1":"1 45711U 20035BG  21250.60555025  .00001263  00000-0  10366-3 0  9997","TIME_SYSTEM":"UTC","LAUNCH_DATE":"2020-06-04","REF_FRAME":"TEME","MEAN_ANOMALY":"306.8308","INCLINATION":"53.0554","ARG_OF_PERICENTER":"53.2818","SEMIMAJOR_AXIS":"6925.335","BSTAR":"0.00010366000000","ECCENTRICITY":"0.00014920","NORAD_CAT_ID":"45711","PERIAPSIS":"546.167","CENTER_NAME":"EARTH","APOAPSIS":"548.233","CLASSIFICATION_TYPE":"U","MEAN_MOTION_DOT":"0.00001263","GP_ID":"184282317"},{"MEAN_ANOMALY":"312.3541","INCLINATION":"53.0540","ARG_OF_PERICENTER":"47.7562","TIME_SYSTEM":"UTC","LAUNCH_DATE":"2020-06-04","REF_FRAME":"TEME","PERIAPSIS":"546.281","APOAPSIS":"548.151","CENTER_NAME":"EARTH","MEAN_MOTION_DOT":"0.00000925","CLASSIFICATION_TYPE":"U","GP_ID":"184282068","SEMIMAJOR_AXIS":"6925.351","BSTAR":"0.00008097500000","ECCENTRICITY":"0.00013500","NORAD_CAT_ID":"45712","EPHEMERIS_TYPE":"0","FILE":"3110443","ELEMENT_SET_NO":"999","PERIOD":"95.592","MEAN_MOTION_DDOT":"0.0000000000000","COUNTRY_CODE":"US","REV_AT_EPOCH":"7135","MEAN_ELEMENT_THEORY":"SGP4","RCS_SIZE":"LARGE","DECAY_DATE":null,"OBJECT_ID":"2020-035BH","SITE":"AFETR","OBJECT_TYPE":"PAYLOAD","EPOCH":"2021-09-07T14:26:41.485920","OBJECT_NAME":"STARLINK-1434","TLE_LINE1":"1 45712U 20035BH  21250.60186905  .00000925  00000-0  80975-4 0  9993","MEAN_MOTION":"15.06399133","TLE_LINE2":"2 45712  53.0540 217.2239 0001350  47.7562 312.3541 15.06399133 71359","RA_OF_ASC_NODE":"217.2239"},{"SEMIMAJOR_AXIS":"6925.356","BSTAR":"0.00010022000000","ECCENTRICITY":"0.00013820","NORAD_CAT_ID":"45713","PERIAPSIS":"546.264","APOAPSIS":"548.178","CENTER_NAME":"EARTH","MEAN_MOTION_DOT":"0.00001212","CLASSIFICATION_TYPE":"U","GP_ID":"184280816","TIME_SYSTEM":"UTC","LAUNCH_DATE":"2020-06-04","REF_FRAME":"TEME","INCLINATION":"53.0547","MEAN_ANOMALY":"304.7450","ARG_OF_PERICENTER":"55.3669","TLE_LINE2":"2 45713  53.0547 236.8375 0001382  55.3669 304.7450 15.06397563 71071","MEAN_MOTION":"15.06397563","RA_OF_ASC_NODE":"236.8375","OBJECT_NAME":"STARLINK-1436","TLE_LINE1":"1 45713U 20035BJ  21250.68849708  .00001212  00000-0  10022-3 0  9994","PERIOD":"95.592","MEAN_MOTION_DDOT":"0.0000000000000","MEAN_ELEMENT_THEORY":"SGP4","COUNTRY_CODE":"US","REV_AT_EPOCH":"7107","RCS_SIZE":"LARGE","EPOCH":"2021-09-07T16:31:26.147712","SITE":"AFETR","OBJECT_TYPE":"PAYLOAD","OBJECT_ID":"2020-035BJ","DECAY_DATE":null,"FILE":"3110443","EPHEMERIS_TYPE":"0","ELEMENT_SET_NO":"999"},{"RA_OF_ASC_NODE":"217.1757","MEAN_MOTION":"15.06396404","TLE_LINE2":"2 45714  53.0554 217.1757 0001179  53.8891 306.2207 15.06396404 71351","TLE_LINE1":"1 45714U 20035BK  21250.61293186 -.00000721  00000-0 -29507-4 0  9996","OBJECT_NAME":"STARLINK-1437","DECAY_DATE":null,"OBJECT_ID":"2020-035BK","SITE":"AFETR","OBJECT_TYPE":"PAYLOAD","EPOCH":"2021-09-07T14:42:37.312704","RCS_SIZE":"LARGE","COUNTRY_CODE":"US","MEAN_ELEMENT_THEORY":"SGP4","REV_AT_EPOCH":"7135","PERIOD":"95.592","MEAN_MOTION_DDOT":"0.0000000000000","ELEMENT_SET_NO":"999","EPHEMERIS_TYPE":"0","FILE":"3110443","NORAD_CAT_ID":"45714","ECCENTRICITY":"0.00011790","BSTAR":"-0.00002950700000","SEMIMAJOR_AXIS":"6925.360","GP_ID":"184281566","CLASSIFICATION_TYPE":"U","MEAN_MOTION_DOT":"-0.00000721","APOAPSIS":"548.041","CENTER_NAME":"EARTH","PERIAPSIS":"546.408","REF_FRAME":"TEME","LAUNCH_DATE":"2020-06-04","TIME_SYSTEM":"UTC","ARG_OF_PERICENTER":"53.8891","MEAN_ANOMALY":"306.2207","INCLINATION":"53.0554"},{"ARG_OF_PERICENTER":"195.5969","INCLINATION":"52.9957","MEAN_ANOMALY":"164.4844","REF_FRAME":"TEME","LAUNCH_DATE":"2020-06-04","TIME_SYSTEM":"UTC","GP_ID":"184253796","CLASSIFICATION_TYPE":"U","MEAN_MOTION_DOT":"0.00046804","CENTER_NAME":"EARTH","APOAPSIS":"406.715","PERIAPSIS":"398.036","NORAD_CAT_ID":"45716","ECCENTRICITY":"0.00064000","BSTAR":"0.00069014000000","SEMIMAJOR_AXIS":"6780.510","ELEMENT_SET_NO":"999","FILE":"3110255","EPHEMERIS_TYPE":"0","SITE":"AFETR","OBJECT_TYPE":"PAYLOAD","EPOCH":"2021-09-07T06:59:45.862656","DECAY_DATE":null,"OBJECT_ID":"2020-035BM","RCS_SIZE":"LARGE","COUNTRY_CODE":"US","MEAN_ELEMENT_THEORY":"SGP4","REV_AT_EPOCH":"7304","MEAN_MOTION_DDOT":"0.0000000000000","PERIOD":"92.609","TLE_LINE1":"1 45716U 20035BM  21250.29150304  .00046804  00000-0  69014-3 0  9992","OBJECT_NAME":"STARLINK-1439","RA_OF_ASC_NODE":"93.7492","TLE_LINE2":"2 45716  52.9957  93.7492 0006400 195.5969 164.4844 15.54924067 73048","MEAN_MOTION":"15.54924067"},{"CENTER_NAME":"EARTH","APOAPSIS":"548.367","PERIAPSIS":"545.979","GP_ID":"184282069","CLASSIFICATION_TYPE":"U","MEAN_MOTION_DOT":"0.00001196","BSTAR":"0.00009915400000","SEMIMAJOR_AXIS":"6925.308","NORAD_CAT_ID":"45730","ECCENTRICITY":"0.00017240","ARG_OF_PERICENTER":"103.5176","MEAN_ANOMALY":"256.6005","INCLINATION":"53.0543","LAUNCH_DATE":"2020-06-13","TIME_SYSTEM":"UTC","REF_FRAME":"TEME","OBJECT_NAME":"STARLINK-1461","TLE_LINE1":"1 45730U 20038A   21250.82302983  .00001196  00000-0  99154-4 0  9996","TLE_LINE2":"2 45730  53.0543  56.2229 0001724 103.5176 256.6005 15.06413117 68438","MEAN_MOTION":"15.06413117","RA_OF_ASC_NODE":"56.2229","EPHEMERIS_TYPE":"0","FILE":"3110443","ELEMENT_SET_NO":"999","COUNTRY_CODE":"US","REV_AT_EPOCH":"6843","MEAN_ELEMENT_THEORY":"SGP4","MEAN_MOTION_DDOT":"0.0000000000000","PERIOD":"95.591","OBJECT_ID":"2020-038A","DECAY_DATE":null,"EPOCH":"2021-09-07T19:45:09.777312","SITE":"AFETR","OBJECT_TYPE":"PAYLOAD","RCS_SIZE":"LARGE"},{"INCLINATION":"53.0567","MEAN_ANOMALY":"247.5690","ARG_OF_PERICENTER":"112.5448","REF_FRAME":"TEME","TIME_SYSTEM":"UTC","LAUNCH_DATE":"2020-06-13","CLASSIFICATION_TYPE":"U","MEAN_MOTION_DOT":"0.00001134","GP_ID":"184280817","PERIAPSIS":"546.228","CENTER_NAME":"EARTH","APOAPSIS":"548.176","ECCENTRICITY":"0.00014060","NORAD_CAT_ID":"45731","SEMIMAJOR_AXIS":"6925.337","BSTAR":"0.00009496900000","ELEMENT_SET_NO":"999","FILE":"3110443","EPHEMERIS_TYPE":"0","RCS_SIZE":"LARGE","SITE":"AFETR","OBJECT_TYPE":"PAYLOAD","EPOCH":"2021-09-07T18:30:50.569632","DECAY_DATE":null,"OBJECT_ID":"2020-038B","PERIOD":"95.592","MEAN_MOTION_DDOT":"0.0000000000000","COUNTRY_CODE":"US","MEAN_ELEMENT_THEORY":"SGP4","REV_AT_EPOCH":"6841","TLE_LINE1":"1 45731U 20038B   21250.77141863  .00001134  00000-0  94969-4 0  9990","OBJECT_NAME":"STARLINK-1465","RA_OF_ASC_NODE":"56.4670","MEAN_MOTION":"15.06403811","TLE_LINE2":"2 45731  53.0567  56.4670 0001406 112.5448 247.5690 15.06403811 68413"},{"RA_OF_ASC_NODE":"56.5055","TLE_LINE2":"2 45732  53.0550  56.5055 0001982  95.5640 264.5575 15.06402378 68415","MEAN_MOTION":"15.06402378","TLE_LINE1":"1 45732U 20038C   21250.76035927  .00000215  00000-0  33370-4 0  9991","OBJECT_NAME":"STARLINK-1466","RCS_SIZE":"LARGE","SITE":"AFETR","OBJECT_TYPE":"PAYLOAD","EPOCH":"2021-09-07T18:14:55.040928","OBJECT_ID":"2020-038C","DECAY_DATE":null,"PERIOD":"95.592","MEAN_MOTION_DDOT":"0.0000000000000","REV_AT_EPOCH":"6841","COUNTRY_CODE":"US","MEAN_ELEMENT_THEORY":"SGP4","ELEMENT_SET_NO":"999","FILE":"3110443","EPHEMERIS_TYPE":"0","ECCENTRICITY":"0.00019820","NORAD_CAT_ID":"45732","SEMIMAJOR_AXIS":"6925.341","BSTAR":"0.00003337000000","MEAN_MOTION_DOT":"0.00000215","CLASSIFICATION_TYPE":"U","GP_ID":"184281567","PERIAPSIS":"545.834","CENTER_NAME":"EARTH","APOAPSIS":"548.579","REF_FRAME":"TEME","TIME_SYSTEM":"UTC","LAUNCH_DATE":"2020-06-13","INCLINATION":"53.0550","MEAN_ANOMALY":"264.5575","ARG_OF_PERICENTER":"95.5640"},{"MEAN_ANOMALY":"255.1675","INCLINATION":"53.0555","ARG_OF_PERICENTER":"104.9503","TIME_SYSTEM":"UTC","LAUNCH_DATE":"2020-06-13","REF_FRAME":"TEME","PERIAPSIS":"546.026","APOAPSIS":"548.380","CENTER_NAME":"EARTH","MEAN_MOTION_DOT":"0.00000178","CLASSIFICATION_TYPE":"U","GP_ID":"184281819","SEMIMAJOR_AXIS":"6925.338","BSTAR":"0.00003086700000","ECCENTRICITY":"0.00017000","NORAD_CAT_ID":"45733","EPHEMERIS_TYPE":"0","FILE":"3110443","ELEMENT_SET_NO":"999","MEAN_MOTION_DDOT":"0.0000000000000","PERIOD":"95.592","COUNTRY_CODE":"US","MEAN_ELEMENT_THEORY":"SGP4","REV_AT_EPOCH":"6843","RCS_SIZE":"LARGE","DECAY_DATE":null,"OBJECT_ID":"2020-038D","EPOCH":"2021-09-07T21:36:37.958976","SITE":"AFETR","OBJECT_TYPE":"PAYLOAD","OBJECT_NAME":"STARLINK-1467","TLE_LINE1":"1 45733U 20038D   21250.90043934  .00000178  00000-0  30867-4 0  9991","TLE_LINE2":"2 45733  53.0555  55.8820 0001700 104.9503 255.1675 15.06403398 68436","MEAN_MOTION":"15.06403398","RA_OF_ASC_NODE":"55.8820"}];
